{
  "type": "FeatureCollection",
  "features": [
    {
      "type": "Feature",
      "properties": {
        "norad_id": 37966,
        "name": "COSMOS 2251 DEB",
        "group": "cosmos-2251-debris",
        "lat": -21.53807092408589,
        "lon": 40.95164102644123,
        "alt_km": 531.2315158522615,
        "timestamp": "2025-12-20T11:30:28.773872+00:00",
        "meta_object_name": "COSMOS 2251 DEB",
        "meta_object_id": "1993-036BPR",
        "meta_epoch": "2025-12-13T08:51:38.453184",
        "meta_mean_motion": 15.12754556,
        "meta_eccentricity": 0.00088035,
        "meta_inclination": 73.9781,
        "meta_ra_of_asc_node": 229.2381,
        "meta_arg_of_pericenter": 105.8293,
        "meta_mean_anomaly": 254.3871,
        "meta_ephemeris_type": 0,
        "meta_classification_type": "U",
        "meta_norad_cat_id": 37966,
        "meta_element_set_no": 999,
        "meta_rev_at_epoch": 85352,
        "meta_bstar": 0.0051051315,
        "meta_mean_motion_dot": 0.00090719,
        "meta_mean_motion_ddot": 0,
        "tle_line1": "1 37966U 93036BPR 25347.36919506  .00090719  00000+0  51051-2 0  9991",
        "tle_line2": "2 37966  73.9781 229.2381 0008803 105.8293 254.3871 15.12754556853526"
      },
      "geometry": {
        "type": "Point",
        "coordinates": [
          40.95164102644123,
          -21.53807092408589
        ]
      }
    },
    {
      "type": "Feature",
      "properties": {
        "norad_id": 37967,
        "name": "COSMOS 2251 DEB",
        "group": "cosmos-2251-debris",
        "lat": 4.937306549907717,
        "lon": 124.46466298394584,
        "alt_km": 785.0709527114059,
        "timestamp": "2025-12-20T11:30:28.773882+00:00",
        "meta_object_name": "COSMOS 2251 DEB",
        "meta_object_id": "1993-036BPS",
        "meta_epoch": "2025-12-18T02:49:02.762976",
        "meta_mean_motion": 14.40572571,
        "meta_eccentricity": 0.01510178,
        "meta_inclination": 74.0151,
        "meta_ra_of_asc_node": 127.4202,
        "meta_arg_of_pericenter": 265.0646,
        "meta_mean_anomaly": 93.3255,
        "meta_ephemeris_type": 0,
        "meta_classification_type": "U",
        "meta_norad_cat_id": 37967,
        "meta_element_set_no": 999,
        "meta_rev_at_epoch": 64813,
        "meta_bstar": 0.0013319552,
        "meta_mean_motion_dot": 4.831e-05,
        "meta_mean_motion_ddot": 0,
        "tle_line1": "1 37967U 93036BPS 25352.11739309  .00004831  00000+0  13320-2 0  9999",
        "tle_line2": "2 37967  74.0151 127.4202 0151017 265.0646  93.3255 14.40572571648139"
      },
      "geometry": {
        "type": "Point",
        "coordinates": [
          124.46466298394584,
          4.937306549907717
        ]
      }
    },
    {
      "type": "Feature",
      "properties": {
        "norad_id": 37968,
        "name": "COSMOS 2251 DEB",
        "group": "cosmos-2251-debris",
        "lat": 28.572146096306213,
        "lon": -95.63509544831398,
        "alt_km": 510.3999474359207,
        "timestamp": "2025-12-20T11:30:28.773892+00:00",
        "meta_object_name": "COSMOS 2251 DEB",
        "meta_object_id": "1993-036BPT",
        "meta_epoch": "2025-12-19T11:22:48.514368",
        "meta_mean_motion": 15.00780274,
        "meta_eccentricity": 0.0080644,
        "meta_inclination": 74.0014,
        "meta_ra_of_asc_node": 257.4249,
        "meta_arg_of_pericenter": 11.5242,
        "meta_mean_anomaly": 348.7765,
        "meta_ephemeris_type": 0,
        "meta_classification_type": "U",
        "meta_norad_cat_id": 37968,
        "meta_element_set_no": 999,
        "meta_rev_at_epoch": 60320,
        "meta_bstar": 0.00064553,
        "meta_mean_motion_dot": 8.749e-05,
        "meta_mean_motion_ddot": 0,
        "tle_line1": "1 37968U 93036BPT 25353.47417262  .00008749  00000+0  64553-3 0  9998",
        "tle_line2": "2 37968  74.0014 257.4249 0080644  11.5242 348.7765 15.00780274603206"
      },
      "geometry": {
        "type": "Point",
        "coordinates": [
          -95.63509544831398,
          28.572146096306213
        ]
      }
    },
    {
      "type": "Feature",
      "properties": {
        "norad_id": 37971,
        "name": "COSMOS 2251 DEB",
        "group": "cosmos-2251-debris",
        "lat": -56.440319380690624,
        "lon": 1.562493985188253,
        "alt_km": 770.1283357951379,
        "timestamp": "2025-12-20T11:30:28.773903+00:00",
        "meta_object_name": "COSMOS 2251 DEB",
        "meta_object_id": "1993-036BPW",
        "meta_epoch": "2025-12-15T20:44:52.764576",
        "meta_mean_motion": 14.48694104,
        "meta_eccentricity": 0.00668395,
        "meta_inclination": 73.9939,
        "meta_ra_of_asc_node": 35.8693,
        "meta_arg_of_pericenter": 174.332,
        "meta_mean_anomaly": 185.8612,
        "meta_ephemeris_type": 0,
        "meta_classification_type": "U",
        "meta_norad_cat_id": 37971,
        "meta_element_set_no": 999,
        "meta_rev_at_epoch": 60723,
        "meta_bstar": 0.0012835139,
        "meta_mean_motion_dot": 4.95e-05,
        "meta_mean_motion_ddot": 0,
        "tle_line1": "1 37971U 93036BPW 25349.86449959  .00004950  00000+0  12835-2 0  9993",
        "tle_line2": "2 37971  73.9939  35.8693 0066839 174.3320 185.8612 14.48694104607235"
      },
      "geometry": {
        "type": "Point",
        "coordinates": [
          1.562493985188253,
          -56.440319380690624
        ]
      }
    },
    {
      "type": "Feature",
      "properties": {
        "norad_id": 37975,
        "name": "COSMOS 2251 DEB",
        "group": "cosmos-2251-debris",
        "lat": -50.59951055954169,
        "lon": 149.32226391006975,
        "alt_km": 616.4342597303767,
        "timestamp": "2025-12-20T11:30:28.773913+00:00",
        "meta_object_name": "COSMOS 2251 DEB",
        "meta_object_id": "1993-036BQA",
        "meta_epoch": "2025-12-18T06:24:18.775872",
        "meta_mean_motion": 14.76341165,
        "meta_eccentricity": 0.00951612,
        "meta_inclination": 74.0019,
        "meta_ra_of_asc_node": 313.2207,
        "meta_arg_of_pericenter": 301.4276,
        "meta_mean_anomaly": 57.7618,
        "meta_ephemeris_type": 0,
        "meta_classification_type": "U",
        "meta_norad_cat_id": 37975,
        "meta_element_set_no": 999,
        "meta_rev_at_epoch": 69827,
        "meta_bstar": 0.0032629501,
        "meta_mean_motion_dot": 0.00024448,
        "meta_mean_motion_ddot": 0,
        "tle_line1": "1 37975U 93036BQA 25352.26688398  .00024448  00000+0  32630-2 0  9996",
        "tle_line2": "2 37975  74.0019 313.2207 0095161 301.4276  57.7618 14.76341165698271"
      },
      "geometry": {
        "type": "Point",
        "coordinates": [
          149.32226391006975,
          -50.59951055954169
        ]
      }
    },
    {
      "type": "Feature",
      "properties": {
        "norad_id": 37985,
        "name": "COSMOS 2251 DEB",
        "group": "cosmos-2251-debris",
        "lat": -61.53167032604572,
        "lon": 103.4221481710862,
        "alt_km": 789.1060084562068,
        "timestamp": "2025-12-20T11:30:28.773923+00:00",
        "meta_object_name": "COSMOS 2251 DEB",
        "meta_object_id": "1993-036BQL",
        "meta_epoch": "2025-12-17T23:49:27.671232",
        "meta_mean_motion": 14.35484605,
        "meta_eccentricity": 0.00210144,
        "meta_inclination": 74.0252,
        "meta_ra_of_asc_node": 256.0955,
        "meta_arg_of_pericenter": 17.3481,
        "meta_mean_anomaly": 342.8385,
        "meta_ephemeris_type": 0,
        "meta_classification_type": "U",
        "meta_norad_cat_id": 37985,
        "meta_element_set_no": 999,
        "meta_rev_at_epoch": 64992,
        "meta_bstar": 4.3734025e-05,
        "meta_mean_motion_dot": 1e-06,
        "meta_mean_motion_ddot": 0,
        "tle_line1": "1 37985U 93036BQL 25351.99268138  .00000100  00000+0  43734-4 0  9990",
        "tle_line2": "2 37985  74.0252 256.0955 0021014  17.3481 342.8385 14.35484605649921"
      },
      "geometry": {
        "type": "Point",
        "coordinates": [
          103.4221481710862,
          -61.53167032604572
        ]
      }
    },
    {
      "type": "Feature",
      "properties": {
        "norad_id": 37988,
        "name": "COSMOS 2251 DEB",
        "group": "cosmos-2251-debris",
        "lat": 72.01819568451528,
        "lon": 127.37081763965358,
        "alt_km": 630.7506396116551,
        "timestamp": "2025-12-20T11:30:28.773933+00:00",
        "meta_object_name": "COSMOS 2251 DEB",
        "meta_object_id": "1993-036BQP",
        "meta_epoch": "2025-12-19T02:22:34.688640",
        "meta_mean_motion": 14.6891967,
        "meta_eccentricity": 0.00635463,
        "meta_inclination": 74.062,
        "meta_ra_of_asc_node": 11.7337,
        "meta_arg_of_pericenter": 47.3595,
        "meta_mean_anomaly": 313.2907,
        "meta_ephemeris_type": 0,
        "meta_classification_type": "U",
        "meta_norad_cat_id": 37988,
        "meta_element_set_no": 999,
        "meta_rev_at_epoch": 23489,
        "meta_bstar": 0.00064166354,
        "meta_mean_motion_dot": 3.842e-05,
        "meta_mean_motion_ddot": 0,
        "tle_line1": "1 37988U 93036BQP 25353.09901260  .00003842  00000+0  64166-3 0  9993",
        "tle_line2": "2 37988  74.0620  11.7337 0063546  47.3595 313.2907 14.68919670234897"
      },
      "geometry": {
        "type": "Point",
        "coordinates": [
          127.37081763965358,
          72.01819568451528
        ]
      }
    }
  ]
}